NORAD_CAT_ID,OBJECT_NAME,OBJECT_TYPE,EPOCH,MEAN_MOTION,ECCENTRICITY,INCLINATION,RA_OF_ASC_NODE,ARG_OF_PERICENTER,MEAN_ANOMALY,BSTAR,MEAN_MOTION_DOT,MEAN_MOTION_DDOT,TLE_LINE0,TLE_LINE1,TLE_LINE2,SEMIMAJOR_AXIS,PERIOD,APOGEE,PERIGEE,DECAYED
52122.0,STARLINK-3726,PAYLOAD,2022-05-26 19:05:37,15.3792923,9.48e-05,53.2165,168.8024,90.0447,270.0667,-0.0058873,-0.00216949,0.0,0 STARLINK-3726,1 52122U 22029AL  22146.79557122 -.00216949  00000-0 -58873-2 0  9996,2 52122  53.2165 168.8024 0000948  90.0447 270.0667 15.37929230 11999,6830.371,93.632,452.883,451.588,0.0
52122.0,STARLINK-3726,PAYLOAD,2022-05-26 22:00:00,15.36311852,0.0001589,53.2174,168.2487,41.0154,271.5283,-0.021529,-0.00714579,0.0,0 STARLINK-3726,1 52122U 22029AL  22146.91667824 -.00714579  00000-0 -21529-1 0  9990,2 52122  53.2174 168.2487 0001589  41.0154 271.5283 15.36311852  1307,6835.1640000000025,93.731,458.115,455.943,0.0
52122.0,STARLINK-3726,PAYLOAD,2022-05-27 01:20:21,15.37461206,0.0002929,53.2159,167.5847,59.9573,300.1722,-0.0053735,-0.00195649,0.0,0 STARLINK-3726,1 52122U 22029AL  22147.05580482 -.00195649  00000-0 -53735-2 0  9996,2 52122  53.2159 167.5847 0002929  59.9573 300.1722 15.37461206 12033,6831.757,93.661,455.62300000000016,451.621,0.0
52122.0,STARLINK-3726,PAYLOAD,2022-05-27 14:00:01,15.35294074,0.0001495,53.2173,165.1353,42.1686,358.35,-0.022339,-0.00717272,0.0,0 STARLINK-3726,1 52122U 22029AL  22147.58334491 -.00717272  00000-0 -22339-1 0  9998,2 52122  53.2173 165.1353 0001495  42.1686 358.3500 15.35294074 12114,6838.184,93.793,461.071,459.027,0.0
52122.0,STARLINK-3726,PAYLOAD,2022-05-27 22:00:01,15.34783166,0.0001811,53.2174,163.5776,32.0361,51.6177,-0.022701,-0.00717096,0.0,0 STARLINK-3726,1 52122U 22029AL  22147.91668981 -.00717096  00000-0 -22701-1 0  9996,2 52122  53.2174 163.5776 0001811  32.0361  51.6177 15.34783166  1302,6839.7019999999975,93.824,462.805,460.328,0.0
52122.0,STARLINK-3726,PAYLOAD,2022-05-28 03:54:04,15.35631386,0.0004345,53.2171,162.4169,328.4326,31.6417,-0.005347,-0.00183857,0.0,0 STARLINK-3726,1 52122U 22029AL  22148.16254846 -.00183857  00000-0 -53470-2 0  9995,2 52122  53.2171 162.4169 0004345 328.4326  31.6417 15.35631386 12204,6837.183000000001,93.773,462.019,456.077,0.0
52122.0,STARLINK-3726,PAYLOAD,2022-05-28 13:16:49,15.3527135,0.0001582,53.2156,160.5958,44.7115,315.4016,-0.0061029,-0.00206686,0.0,0 STARLINK-3726,1 52122U 22029AL  22148.55335210 -.00206686  00000-0 -61029-2 0  9998,2 52122  53.2156 160.5958 0001582  44.7115 315.4016 15.35271350 12261,6838.252,93.794,461.198,459.035,0.0
52122.0,STARLINK-3726,PAYLOAD,2022-05-28 14:00:01,15.33764013,0.0001702,53.2173,160.4713,44.6843,123.2044,-0.023471,-0.00717603,0.0,0 STARLINK-3726,1 52122U 22029AL  22148.58334491 -.00717603  00000-0 -23471-1 0  9995,2 52122  53.2173 160.4713 0001702  44.6843 123.2044 15.33764013 12266,6842.731,93.887,465.761,463.432,0.0
52122.0,STARLINK-3726,PAYLOAD,2022-05-28 22:00:00,15.33253998,0.0001798,53.2173,158.9173,41.1892,167.9317,-0.023867,-0.00717956,0.0,0 STARLINK-3726,1 52122U 22029AL  22148.91667824 -.00717956  00000-0 -23867-1 0  9991,2 52122  53.2173 158.9173 0001798  41.1892 167.9317 15.33253998  1305,6844.249,93.918,467.344,464.883,0.0
52122.0,STARLINK-3726,PAYLOAD,2022-05-29 03:21:42,15.34214717,0.000146,53.2156,157.8654,41.1035,319.0078,-0.0064209,-0.00210135,0.0,0 STARLINK-3726,1 52122U 22029AL  22149.14007502 -.00210135  00000-0 -64209-2 0  9991,2 52122  53.2156 157.8654 0001460  41.1035 319.0078 15.34214717 12351,6841.391,93.859,464.255,462.257,0.0
52122.0,STARLINK-3726,PAYLOAD,2022-05-29 14:00:01,15.32236002,0.0001549,53.2172,155.81799999999996,48.5891,241.1537,-0.024761,-0.00720951,0.0,0 STARLINK-3726,1 52122U 22029AL  22149.58334491 -.00720951  00000-0 -24761-1 0  9999,2 52122  53.2172 155.8180 0001549  48.5891 241.1537 15.32236002 12411,6847.28,93.98,470.205,468.084,0.0
52122.0,STARLINK-3726,PAYLOAD,2022-05-29 22:00:00,15.31721894,0.000156,53.2174,154.2679,43.674,285.4639,-0.024915,-0.00714326,0.0,0 STARLINK-3726,1 52122U 22029AL  22149.91667824 -.00714326  00000-0 -24915-1 0  9995,2 52122  53.2174 154.2679 0001560  43.6740 285.4639 15.31721894  1308,6848.812,94.012,471.745,469.608,0.0
52122.0,STARLINK-3726,PAYLOAD,2022-05-30 12:14:37,15.32193469,9.9e-05,53.2158,151.4986,198.1753,161.9214,-0.0069683,-0.00213808,0.0,0 STARLINK-3726,1 52122U 22029AL  22150.51015807 -.00213808  00000-0 -69683-2 0  9992,2 52122  53.2158 151.4986 0000990 198.1753 161.9214 15.32193469 12565,6847.406,93.983,469.949,468.593,0.0
52122.0,STARLINK-3726,PAYLOAD,2022-05-30 14:00:01,15.30704409,0.0001641,53.2172,151.1759,37.6534,8.4293,-0.02585,-0.00717613,0.0,0 STARLINK-3726,1 52122U 22029AL  22150.58334491 -.00717613  00000-0 -25850-1 0  9992,2 52122  53.2172 151.1759 0001641  37.6534   8.4293 15.30704409  1306,6851.846,94.074,474.836,472.587,0.0
52122.0,STARLINK-3726,PAYLOAD,2022-05-30 20:00:01,15.30319325,0.0001631,53.2174,150.0157,37.582,306.7257,-0.026002,-0.00713542,0.0,0 STARLINK-3726,1 52122U 22029AL  22150.83334491 -.00713542  00000-0 -26002-1 0  9997,2 52122  53.2174 150.0157 0001631  37.5820 306.7257 15.30319325 12602,6852.996,94.098,475.979,473.74300000000005,0.0
52122.0,STARLINK-3726,PAYLOAD,2022-05-30 22:00:00,15.30193055,0.0001758,53.2174,149.6294,35.5723,48.0663,-0.026209,-0.00716199,0.0,0 STARLINK-3726,1 52122U 22029AL  22150.91667824 -.00716199  00000-0 -26209-1 0  9995,2 52122  53.2174 149.6294 0001758  35.5723  48.0663 15.30193055  1300,6853.373000000001,94.106,476.443,474.033,0.0
52122.0,STARLINK-3726,PAYLOAD,2022-05-31 02:21:06,15.31164319,0.0001085,53.2149,148.7821,11.1348,348.9677,-0.0067768999999999,-0.00201686,0.0,0 STARLINK-3726,1 52122U 22029AL  22151.09798945 -.00201686  00000-0 -67769-2 0  9991,2 52122  53.2149 148.7821 0001085  11.1348 348.9677 15.31164319 12653,6850.474,94.046,473.083,471.596,0.0
52122.0,STARLINK-3726,PAYLOAD,2022-05-31 06:00:02,15.29683997,0.000211,53.2174,148.0874,30.6224,90.02,-0.026673,-0.00717388,0.0,0 STARLINK-3726,1 52122U 22029AL  22151.25002315 -.00717388  00000-0 -26673-1 0  9997,2 52122  53.2174 148.0874 0002110  30.6224  90.0200 15.29683997  1303,6854.893,94.137,478.205,475.312,0.0
52122.0,STARLINK-3726,PAYLOAD,2022-05-31 14:00:01,15.29173652,0.0001749,53.2172,146.5444,42.8437,114.0638,-0.027051,-0.00716181,0.0,0 STARLINK-3726,1 52122U 22029AL  22151.58334491 -.00716181  00000-0 -27051-1 0  9997,2 52122  53.2172 146.5444 0001749  42.8437 114.0638 15.29173652 12727,6856.418000000002,94.169,479.482,477.084,0.0
52122.0,STARLINK-3726,PAYLOAD,2022-05-31 22:00:00,15.28664747,0.000175,53.2173,145.0017,44.4415,148.1824,-0.027577,-0.00726865,0.0,0 STARLINK-3726,1 52122U 22029AL  22151.91667824 -.00726865  00000-0 -27577-1 0  9996,2 52122  53.2173 145.0017 0001750  44.4415 148.1824 15.28664747  1300,6857.94,94.2,481.005,478.605,0.0
52122.0,STARLINK-3726,PAYLOAD,2022-06-01 12:00:00,15.27771015,0.0001768,53.2171,142.309,42.5204,121.131,-0.028218,-0.00723822,0.0,0 STARLINK-3726,1 52122U 22029AL  22152.50001157 -.00723822  00000-0 -28218-1 0  9996,2 52122  53.2171 142.3090 0001768  42.5204 121.1310 15.27771015 12863,6860.614000000001,94.255,483.692,481.266,0.0
52122.0,STARLINK-3726,PAYLOAD,2022-06-01 20:00:01,15.27260987,0.0001791,53.2172,140.7692,41.8261,155.8572,-0.028677,-0.0072418,0.0,0 STARLINK-3726,1 52122U 22029AL  22152.83334491 -.00724180  00000-0 -28677-1 0  9999,2 52122  53.2172 140.7692 0001791  41.8261 155.8572 15.27260987  1307,6862.142,94.286,485.236,482.777,0.0
52122.0,STARLINK-3726,PAYLOAD,2022-06-02 15:34:31,15.2734995,0.0002483,53.2159,136.9948,39.4557,320.6623,-0.0082237,-0.00217133,0.0,0 STARLINK-3726,1 52122U 22029AL  22153.64897948 -.00217133  00000-0 -82237-2 0  9998,2 52122  53.2159 136.9948 0002483  39.4557 320.6623 15.27349950 13044,6861.875,94.281,485.444,482.036,0.0
52122.0,STARLINK-3726,PAYLOAD,2022-06-03 02:34:42,15.26739144,0.0001058,53.216,134.8865,87.566,272.5461,-0.0072372,-0.00188309,0.0,0 STARLINK-3726,1 52122U 22029AL  22154.10743474 -.00188309  00000-0 -72372-2 0  9995,2 52122  53.2160 134.8865 0001058  87.5660 272.5461 15.26739144 13117,6863.705,94.319,486.296,484.844,0.0
52122.0,STARLINK-3726,PAYLOAD,2022-06-03 12:01:04,15.26050088,0.000254,53.2161,133.0794,94.4526,265.6764,-0.0082441,-0.00209473,0.0,0 STARLINK-3726,1 52122U 22029AL  22154.50074952 -.00209473  00000-0 -82441-2 0  9991,2 52122  53.2161 133.0794 0002540  94.4526 265.6764 15.26050088 13173,6865.771,94.361,489.38,485.892,0.0
52122.0,STARLINK-3726,PAYLOAD,2022-06-04 03:45:18,15.25048532,0.0001751999999999,53.2158,130.0668,117.1531,242.9647,-0.0085205,-0.00210018,0.0,0 STARLINK-3726,1 52122U 22029AL  22155.15646337 -.00210018  00000-0 -85205-2 0  9993,2 52122  53.2158 130.0668 0001752 117.1531 242.9647 15.25048532 13278,6868.776999999999,94.423,491.845,489.43800000000016,0.0
52122.0,STARLINK-3726,PAYLOAD,2022-06-04 10:03:09,15.2468707,0.000247,53.2161,128.8626,118.3511,241.7738,-0.0088624,-0.00215924,0.0,0 STARLINK-3726,1 52122U 22029AL  22155.41885686 -.00215924  00000-0 -88624-2 0  9993,2 52122  53.2161 128.8626 0002470 118.3511 241.7738 15.24687070 13318,6869.861999999999,94.446,493.424,490.03,0.0
52122.0,STARLINK-3726,PAYLOAD,2022-06-05 22:00:00,15.21013429,0.0001583,53.2176,122.025,49.7118,245.1158,-0.034479,-0.00722033,0.0,0 STARLINK-3726,1 52122U 22029AL  22156.91667824 -.00722033  00000-0 -34479-1 0  9993,2 52122  53.2176 122.0250 0001583  49.7118 245.1158 15.21013429 13533,6880.919,94.674,503.874,501.695,0.0
52122.0,STARLINK-3726,PAYLOAD,2022-06-06 14:00:01,15.19995338,0.0001491,53.2174,118.9824,49.3156,296.7211,-0.035773,-0.00726721,0.0,0 STARLINK-3726,1 52122U 22029AL  22157.58334491 -.00726721  00000-0 -35773-1 0  9994,2 52122  53.2174 118.9824 0001491  49.3156 296.7211 15.19995338  1307,6883.9919999999975,94.737,506.883,504.83,0.0
